OBJECT_NAME,OBJECT_ID,EPOCH,MEAN_MOTION,ECCENTRICITY,INCLINATION,RA_OF_ASC_NODE,ARG_OF_PERICENTER,MEAN_ANOMALY,EPHEMERIS_TYPE,CLASSIFICATION_TYPE,NORAD_CAT_ID,ELEMENT_SET_NO,REV_AT_EPOCH,BSTAR,MEAN_MOTION_DOT,MEAN_MOTION_DDOT
SL-16 R/B,1994-077B,2026-06-13T10:42:32.575104,14.15571783,.00027751,70.9806,151.0327,330.4393,29.6572,0,U,23405,999,62978,-.29826253E-4,-.106E-5,0
ARIANE 40+ R/B,1995-021B,2026-06-13T15:50:47.931936,14.39831553,.00062064,98.4411,234.7860,204.6338,273.8625,0,U,23561,999,63305,.8895697E-4,.236E-5,0
SL-16 R/B,1995-058B,2026-06-13T14:22:47.602848,14.15506378,.00135813,71.0216,338.8918,325.4027,34.6211,0,U,23705,999,58142,.13057536E-3,.208E-5,0
SL-16 R/B,1996-051B,2026-06-13T15:10:06.264480,14.12444722,.00151632,70.7639,332.1730,342.2312,17.8275,0,U,24298,999,53519,.86954014E-4,.111E-5,0
ORBVIEW 2 (SEASTAR),1997-037A,2026-06-13T11:10:02.993088,14.35551666,.00031027,98.8683,331.3813,123.5053,236.6428,0,U,24883,999,52221,.84741722E-4,.197E-5,0
SL-16 R/B,1998-043G,2026-06-13T13:46:46.887456,14.26068062,.00109364,98.8363,118.7023,95.7463,264.4963,0,U,25400,999,45265,.32736824E-4,.33E-6,0
SL-16 R/B,1998-045B,2026-06-13T15:12:27.292608,14.16204451,.00094885,71.0120,339.8032,246.0670,113.9460,0,U,25407,999,44068,-.76726006E-4,-.2E-5,0
ISS (ZARYA),1998-067A,2026-06-13T12:18:17.509824,15.49208508,.00049187,51.6334,318.2790,181.0364,179.0615,0,U,25544,999,57118,.1626315E-3,.8586E-4,0
CZ-4B R/B,1999-025C,2026-06-13T14:54:29.740320,14.18282901,.0038185,98.6484,206.5493,69.6337,44.9958,0,U,25732,999,40176,.44009437E-4,.49E-6,0
OKEAN-O,1999-039A,2026-06-13T15:07:32.563200,14.80463196,.00017056,97.9317,223.4688,74.5666,285.5734,0,U,25860,999,44858,.77362126E-4,.54E-5,0
SL-16 R/B,1999-039B,2026-06-13T14:06:25.843104,14.81841983,.00136443,97.9839,223.4610,309.7299,50.2711,0,U,25861,999,45106,.6286864E-4,.443E-5,0
DELTA 2 R/B,1999-041E,2026-06-13T13:34:30.496800,14.12010444,.05008659,51.7659,278.2635,271.3092,83.0531,0,U,25876,999,37657,.16702277E-3,.803E-5,0
HELIOS 1B,1999-064A,2026-06-13T14:45:05.030784,14.87998127,.00024948,98.1618,69.6510,95.9881,264.1619,0,U,25977,999,69952,.14984688E-3,.1317E-4,0
TERRA,1999-068A,2026-06-13T14:31:54.584832,14.61100584,.00013014,97.9457,214.2937,202.9904,281.7027,0,U,25994,999,40908,.84721343E-4,.372E-5,0
SL-16 R/B,2000-006B,2026-06-13T14:28:45.315264,14.15834668,.00153265,71.0024,256.1611,28.6140,331.5821,0,U,26070,999,36213,-.87394148E-4,-.22E-5,0
TITAN 4B R/B,2000-047B,2026-06-13T11:36:41.459616,15.10177831,.00456349,67.9876,130.9970,291.0434,68.5837,0,U,26474,999,40737,.20685246E-3,.3329E-4,0
ENVISAT,2002-009A,2026-06-13T12:06:37.293120,14.39063976,.00013365,98.3833,115.9051,89.3478,23.8513,0,U,27386,999,27295,.33018431E-4,.59E-6,0
IDEFIX & ARIANE 42P R/B,2002-021B,2026-06-13T10:10:30.042912,14.31080469,.00105707,98.5944,101.9479,266.2884,93.7090,0,U,27422,999,25771,.83553282E-4,.176E-5,0
AQUA,2002-022A,2026-06-13T15:41:31.487424,14.62153388,.00012418,98.4276,133.8661,53.3746,119.8360,0,U,27424,999,28275,.15503377E-3,.73E-5,0
CZ-4B R/B,2002-024C,2026-06-13T13:48:43.049664,14.14563754,.00511589,98.8701,217.4192,110.2645,18.3498,0,U,27432,999,24279,.44290933E-4,.42E-6,0
MIDORI II (ADEOS-II),2002-056A,2026-06-13T11:57:05.514336,14.29347842,.00022175,98.7877,123.7264,81.8394,278.3039,0,U,27597,999,22398,.10878739E-3,.232E-5,0
H-2A R/B,2002-056E,2026-06-13T14:44:40.030944,14.33820686,.00690445,98.3311,121.4191,235.3480,298.9849,0,U,27601,999,22785,.72774601E-4,.166E-5,0
CZ-4B R/B,2003-049C,2026-06-13T14:04:55.841952,14.55098052,.00470669,98.6896,163.2899,299.8576,59.7946,0,U,28059,999,20054,.76262477E-4,.282E-5,0
CZ-2C R/B,2004-012C,2026-06-13T14:39:07.705440,15.78325147,.00090145,97.7089,239.8593,299.5723,60.4644,0,U,28222,999,21933,.57599629E-3,.99858E-3,0
SL-16 R/B,2004-021B,2026-06-13T15:00:59.016384,14.14609964,.00073973,71.0013,31.1645,258.8382,101.1909,0,U,28353,999,13640,-.1186824E-3,-.276E-5,0
CZ-4B R/B,2004-035C,2026-06-13T14:27:21.066624,15.30578473,.00303108,97.3369,197.7160,351.0742,8.9956,0,U,28415,999,19457,.26731509E-3,.7936E-4,0
CZ-2C R/B,2004-046B,2026-06-13T14:46:23.007648,14.27025792,.01383226,98.1948,73.6194,230.9001,127.9814,0,U,28480,999,12218,.38165141E-4,.61E-6,0
ARIANE 5 R/B,2004-049H,2026-06-13T11:49:37.966656,14.85444692,.00847405,98.2718,336.6032,41.3034,319.4547,0,U,28499,999,16001,.76186918E-4,.636E-5,0
CZ-2D R/B,2005-024B,2026-06-13T14:02:12.811200,15.69183051,.00040324,97.3480,183.8344,60.9346,299.2320,0,U,28738,999,15477,.49466969E-3,.57588E-3,0
ALOS (DAICHI),2006-002A,2026-06-13T14:51:35.663328,14.70043824,.0001585,98.1323,120.1976,58.4403,301.6957,0,U,28931,999,8757,.17362722E-3,.992E-5,0
