SL-16 R/B               
1 23405U 94077B   26164.44621036 -.00000106  00000+0 -29826-4 0  9995
2 23405  70.9806 151.0327 0002775 330.4393  29.6572 14.15571783629786
ARIANE 40+ R/B          
1 23561U 95021B   26164.66027699  .00000236  00000+0  88957-4 0  9999
2 23561  98.4411 234.7860 0006206 204.6338 273.8625 14.39831553633058
SL-16 R/B               
1 23705U 95058B   26164.59916207  .00000208  00000+0  13058-3 0  9991
2 23705  71.0216 338.8918 0013581 325.4027  34.6211 14.15506378581424
SL-16 R/B               
1 24298U 96051B   26164.63201695  .00000111  00000+0  86954-4 0  9995
2 24298  70.7639 332.1730 0015163 342.2312  17.8275 14.12444722535195
ORBVIEW 2 (SEASTAR)     
1 24883U 97037A   26164.46531242  .00000197  00000+0  84742-4 0  9992
2 24883  98.8683 331.3813 0003102 123.5053 236.6428 14.35551666522211
SL-16 R/B               
1 25400U 98043G   26164.57415379  .00000033  00000+0  32737-4 0  9996
2 25400  98.8363 118.7023 0010936  95.7463 264.4963 14.26068062452656
SL-16 R/B               
1 25407U 98045B   26164.63364922 -.00000200  00000+0 -76726-4 0  9993
2 25407  71.0120 339.8032 0009488 246.0670 113.9460 14.16204451440687
ISS (ZARYA)             
1 25544U 98067A   26164.51270266  .00008586  00000+0  16263-3 0  9995
2 25544  51.6334 318.2790 0004918 181.0364 179.0615 15.49208508571182
CZ-4B R/B               
1 25732U 99025C   26164.62117755  .00000049  00000+0  44009-4 0  9990
2 25732  98.6484 206.5493 0038185  69.6337  44.9958 14.18282901401761
OKEAN-O                 
1 25860U 99039A   26164.63023800  .00000540  00000+0  77362-4 0  9999
2 25860  97.9317 223.4688 0001705  74.5666 285.5734 14.80463196448584
SL-16 R/B               
1 25861U 99039B   26164.58779911  .00000443  00000+0  62869-4 0  9993
2 25861  97.9839 223.4610 0013644 309.7299  50.2711 14.81841983451063
DELTA 2 R/B             
1 25876U 99041E   26164.56563075  .00000803  00000+0  16702-3 0  9996
2 25876  51.7659 278.2635 0500865 271.3092  83.0531 14.12010444376573
HELIOS 1B               
1 25977U 99064A   26164.61464156  .00001317  00000+0  14985-3 0  9991
2 25977  98.1618  69.6510 0002494  95.9881 264.1619 14.87998127699527
TERRA                   
1 25994U 99068A   26164.60549288  .00000372  00000+0  84721-4 0  9999
2 25994  97.9457 214.2937 0001301 202.9904 281.7027 14.61100584409089
SL-16 R/B               
1 26070U 00006B   26164.60330226 -.00000220  00000+0 -87394-4 0  9992
2 26070  71.0024 256.1611 0015326  28.6140 331.5821 14.15834668362135
TITAN 4B R/B            
1 26474U 00047B   26164.48381319  .00003329  00000+0  20685-3 0  9990
2 26474  67.9876 130.9970 0045634 291.0434  68.5837 15.10177831407374
ENVISAT                 
1 27386U 02009A   26164.50459830  .00000059  00000+0  33018-4 0  9992
2 27386  98.3833 115.9051 0001336  89.3478  23.8513 14.39063976272951
IDEFIX & ARIANE 42P R/B 
1 27422U 02021B   26164.42395883  .00000176  00000+0  83553-4 0  9994
2 27422  98.5944 101.9479 0010570 266.2884  93.7090 14.31080469257714
AQUA                    
1 27424U 02022A   26164.65383666  .00000730  00000+0  15503-3 0  9993
2 27424  98.4276 133.8661 0001241  53.3746 119.8360 14.62153388282754
CZ-4B R/B               
1 27432U 02024C   26164.57549826  .00000042  00000+0  44291-4 0  9990
2 27432  98.8701 217.4192 0051158 110.2645  18.3498 14.14563754242795
MIDORI II (ADEOS-II)    
1 27597U 02056A   26164.49798049  .00000232  00000+0  10879-3 0  9996
2 27597  98.7877 123.7264 0002217  81.8394 278.3039 14.29347842223988
H-2A R/B                
1 27601U 02056E   26164.61435221  .00000166  00000+0  72775-4 0  9996
2 27601  98.3311 121.4191 0069044 235.3480 298.9849 14.33820686227854
CZ-4B R/B               
1 28059U 03049C   26164.58675743  .00000282  00000+0  76262-4 0  9992
2 28059  98.6896 163.2899 0047066 299.8576  59.7946 14.55098052200549
CZ-2C R/B               
1 28222U 04012C   26164.61050585  .00099858  00000+0  57600-3 0  9991
2 28222  97.7089 239.8593 0009014 299.5723  60.4644 15.78325147219333
SL-16 R/B               
1 28353U 04021B   26164.62568306 -.00000276  00000+0 -11868-3 0  9996
2 28353  71.0013  31.1645 0007397 258.8382 101.1909 14.14609964136406
CZ-4B R/B               
1 28415U 04035C   26164.60232716  .00007936  00000+0  26732-3 0  9995
2 28415  97.3369 197.7160 0030310 351.0742   8.9956 15.30578473194575
CZ-2C R/B               
1 28480U 04046B   26164.61554407  .00000061  00000+0  38165-4 0  9990
2 28480  98.1948  73.6194 0138322 230.9001 127.9814 14.27025792122182
ARIANE 5 R/B            
1 28499U 04049H   26164.49280054  .00000636  00000+0  76187-4 0  9997
2 28499  98.2718 336.6032 0084740  41.3034 319.4547 14.85444692160018
CZ-2D R/B               
1 28738U 05024B   26164.58487050  .00057588  00000+0  49467-3 0  9990
2 28738  97.3480 183.8344 0004032  60.9346 299.2320 15.69183051154779
ALOS (DAICHI)           
1 28931U 06002A   26164.61916277  .00000992  00000+0  17363-3 0  9991
2 28931  98.1323 120.1976 0001585  58.4403 301.6957 14.70043824 87571
